{"type":"FeatureCollection","features":[{"type":"Feature","properties":{"code":"69","nom":"Rh\u00f4ne","region":"84"},"geometry":{"type":"Polygon","coordinates":[[[4.391,45.837],[4.396,45.86],[4.395,45.865],[4.363,45.864],[4.343,45.877],[4.324,45.904],[4.346,45.916],[4.346,45.93],[4.294,45.953],[4.276,45.978],[4.248,45.987],[4.244,45.997],[4.3,45.989],[4.311,46.008],[4.28,46.022],[4.261,46.037],[4.254,46.052],[4.297,46.064],[4.301,46.079],[4.309,46.11],[4.322,46.13],[4.333,46.135],[4.362,46.139],[4.382,46.15],[4.417,46.136],[4.439,46.168],[4.414,46.18],[4.406,46.182],[4.423,46.203],[4.422,46.207],[4.387,46.22],[4.386,46.226],[4.385,46.247],[4.388,46.248],[4.397,46.267],[4.396,46.275],[4.406,46.296],[4.427,46.303],[4.44,46.293],[4.489,46.288],[4.504,46.267],[4.546,46.274],[4.558,46.295],[4.57,46.293],[4.571,46.29],[4.586,46.269],[4.618,46.265],[4.617,46.281],[4.639,46.302],[4.663,46.295],[4.694,46.302],[4.694,46.295],[4.707,46.285],[4.708,46.27],[4.701,46.267],[4.68,46.268],[4.71,46.248],[4.737,46.233],[4.72,46.229],[4.736,46.212],[4.721,46.198],[4.725,46.184],[4.763,46.176],[4.775,46.177],[4.78,46.177],[4.782,46.172],[4.792,46.164],[4.803,46.157],[4.796,46.139],[4.788,46.131],[4.772,46.118],[4.767,46.107],[4.76,46.101],[4.749,46.082],[4.762,46.068],[4.759,46.062],[4.746,46.035],[4.747,46.028],[4.749,46.004],[4.749,46.003],[4.749,45.996],[4.75,45.965],[4.749,45.963],[4.731,45.941],[4.745,45.937],[4.761,45.935],[4.789,45.924],[4.808,45.921],[4.811,45.91],[4.804,45.899],[4.805,45.896],[4.848,45.913],[4.872,45.894],[4.881,45.898],[4.884,45.88],[4.909,45.874],[4.901,45.858],[4.921,45.833],[4.924,45.804],[4.952,45.809],[4.97,45.808],[4.98,45.806],[4.981,45.805],[4.994,45.808],[5.001,45.81],[5.017,45.806],[5.038,45.809],[5.058,45.81],[5.092,45.812],[5.101,45.814],[5.089,45.785],[5.06,45.782],[5.094,45.766],[5.094,45.739],[5.134,45.734],[5.159,45.715],[5.155,45.702],[5.154,45.7],[5.131,45.708],[5.104,45.699],[5.089,45.677],[5.054,45.661],[5.058,45.653],[5.04,45.647],[5.044,45.621],[4.989,45.619],[4.998,45.603],[4.971,45.613],[4.933,45.607],[4.926,45.606],[4.891,45.602],[4.888,45.601],[4.86,45.591],[4.858,45.576],[4.849,45.58],[4.81,45.59],[4.777,45.588],[4.809,45.573],[4.816,45.566],[4.82,45.559],[4.837,45.544],[4.872,45.527],[4.861,45.517],[4.846,45.504],[4.842,45.501],[4.802,45.479],[4.8,45.479],[4.78,45.47],[4.781,45.458],[4.78,45.455],[4.776,45.454],[4.757,45.456],[4.739,45.473],[4.722,45.494],[4.682,45.48],[4.664,45.485],[4.65,45.497],[4.651,45.531],[4.665,45.543],[4.666,45.543],[4.685,45.555],[4.685,45.555],[4.687,45.558],[4.658,45.564],[4.649,45.565],[4.659,45.543],[4.645,45.541],[4.643,45.543],[4.624,45.57],[4.603,45.571],[4.587,45.571],[4.57,45.583],[4.548,45.58],[4.505,45.577],[4.468,45.586],[4.474,45.595],[4.461,45.601],[4.442,45.623],[4.423,45.63],[4.41,45.632],[4.409,45.637],[4.393,45.654],[4.393,45.662],[4.393,45.663],[4.366,45.671],[4.374,45.691],[4.366,45.699],[4.403,45.744],[4.391,45.755],[4.359,45.751],[4.349,45.771],[4.376,45.782],[4.388,45.803],[4.376,45.825],[4.391,45.837]]]}}]}